[{"OBJECT_NAME":"STARLINK-6067","OBJECT_ID":"2023-078BB","EPOCH":"2026-03-09T23:48:08.788896","MEAN_MOTION":14.983264,"ECCENTRICITY":0.00026539,"INCLINATION":70.0005,"RA_OF_ASC_NODE":323.4976,"ARG_OF_PERICENTER":261.3525,"MEAN_ANOMALY":98.7334,"EPHEMERIS_TYPE":0,"CLASSIFICATION_TYPE":"U","NORAD_CAT_ID":56816,"ELEMENT_SET_NO":999,"REV_AT_EPOCH":15322,"BSTAR":9.7884525e-5,"MEAN_MOTION_DOT":1.075e-5,"MEAN_MOTION_DDOT":0},{"OBJECT_NAME":"CZ-6A DEB","OBJECT_ID":"2024-140XM","EPOCH":"2026-03-08T13:47:27.015936","MEAN_MOTION":14.68389112,"ECCENTRICITY":0.01435049,"INCLINATION":89.0591,"RA_OF_ASC_NODE":285.7653,"ARG_OF_PERICENTER":157.7449,"MEAN_ANOMALY":203.0084,"EPHEMERIS_TYPE":0,"CLASSIFICATION_TYPE":"U","NORAD_CAT_ID":61396,"ELEMENT_SET_NO":999,"REV_AT_EPOCH":7982,"BSTAR":0.00092985645,"MEAN_MOTION_DOT":6.31e-5,"MEAN_MOTION_DDOT":0}]
